NOAA 17                 
1 27453U 02032A   26087.89860401  .00000245  00000+0  12124-3 0  9990
2 27453  98.8574  52.7356 0010836 220.7073 139.3297 14.26200051235545
NOAA 18                 
1 28654U 05018A   26087.86343064  .00000048  00000+0  48505-4 0  9993
2 28654  98.8131 168.6998 0014568  23.7418 336.4424 14.13714606 74968
NOAA 19                 
1 33591U 09005A   26087.91881651  .00000034  00000+0  41907-4 0  9998
2 33591  98.9571 158.7189 0012735 255.9475 104.0282 14.13460436883149
SUOMI NPP               
1 37849U 11061A   26087.91542407  .00000075  00000+0  56697-4 0  9993
2 37849  98.7893  29.3674 0001675 159.0398 201.0847 14.19498498747054
NOAA 20 (JPSS-1)        
1 43013U 17073A   26087.85936158  .00000088  00000+0  62436-4 0  9997
2 43013  98.7713  28.0585 0001883 111.8045 248.3331 14.19540995433074
NOAA 21 (JPSS-2)        
1 54234U 22150A   26087.89385379  .00000074  00000+0  55883-4 0  9996
2 54234  98.7576  27.9422 0002751  73.0528 287.0950 14.19557101175152
